XRISM                   
1 57800U 23137A   26090.49708295  .00007486  00000+0  42232-3 0  9997
2 57800  31.0015 142.5846 0007915 258.4497 101.5253 15.11758652141096
ACS3                    
1 59588U 24077B   26091.09885189  .00036993  00000+0  28903-1 0  9993
2 59588  97.1961  27.1742 0073098  25.8569 334.6220 13.90692249 97310
HTV-X1                  
1 66174U 25241A   26091.14836977  .00000978  00000+0  42398-4 0  9994
2 66174  51.6375 324.8235 0007212 259.7881 100.2287 15.32487490 24382
SZ-21 MODULE            
1 66515U 25246C   26091.21793699  .00041753  00000+0  33315-3 0  9993
2 66515  41.4742  64.4975 0002466 219.0521 141.0144 15.70344798 21613
